{
  "type": "FeatureCollection",
  "features": [
    {
      "type": "Feature",
      "properties": {
        "norad_id": 34540,
        "name": "IRIDIUM 33 DEB",
        "group": "iridium-33-debris",
        "lat": -72.26784722183817,
        "lon": -66.78255493087042,
        "alt_km": 661.5097881867896,
        "timestamp": "2025-12-18T17:50:15.340260+00:00",
        "meta_object_name": "IRIDIUM 33 DEB",
        "meta_object_id": "1997-051JH",
        "meta_epoch": "2025-12-17T21:15:02.173248",
        "meta_mean_motion": 14.75425645,
        "meta_eccentricity": 0.00172318,
        "meta_inclination": 86.31,
        "meta_ra_of_asc_node": 305.2533,
        "meta_arg_of_pericenter": 141.4592,
        "meta_mean_anomaly": 272.6134,
        "meta_ephemeris_type": 0,
        "meta_classification_type": "U",
        "meta_norad_cat_id": 34540,
        "meta_element_set_no": 999,
        "meta_rev_at_epoch": 89097,
        "meta_bstar": 0.0012315699,
        "meta_mean_motion_dot": 8.411e-05,
        "meta_mean_motion_ddot": 0,
        "tle_line1": "1 34540U 97051JH  25351.88544182  .00008411  00000+0  12316-2 0  9992",
        "tle_line2": "2 34540  86.3100 305.2533 0017231 141.4592 272.6134 14.75425645890978"
      },
      "geometry": {
        "type": "Point",
        "coordinates": [
          -66.78255493087042,
          -72.26784722183817
        ]
      }
    },
    {
      "type": "Feature",
      "properties": {
        "norad_id": 34648,
        "name": "IRIDIUM 33 DEB",
        "group": "iridium-33-debris",
        "lat": 43.66768073121925,
        "lon": 96.0679359073649,
        "alt_km": 955.117330779306,
        "timestamp": "2025-12-18T17:50:15.340270+00:00",
        "meta_object_name": "IRIDIUM 33 DEB",
        "meta_object_id": "1997-051JZ",
        "meta_epoch": "2025-12-18T05:16:16.304160",
        "meta_mean_motion": 14.11658863,
        "meta_eccentricity": 0.01810182,
        "meta_inclination": 86.3907,
        "meta_ra_of_asc_node": 279.7334,
        "meta_arg_of_pericenter": 281.7704,
        "meta_mean_anomaly": 76.3223,
        "meta_ephemeris_type": 0,
        "meta_classification_type": "U",
        "meta_norad_cat_id": 34648,
        "meta_element_set_no": 999,
        "meta_rev_at_epoch": 85038,
        "meta_bstar": 0.005925561,
        "meta_mean_motion_dot": 0.00012599,
        "meta_mean_motion_ddot": 0,
        "tle_line1": "1 34648U 97051JZ  25352.21963315  .00012599  00000+0  59256-2 0  9998",
        "tle_line2": "2 34648  86.3907 279.7334 0181018 281.7704  76.3223 14.11658863850383"
      },
      "geometry": {
        "type": "Point",
        "coordinates": [
          96.0679359073649,
          43.66768073121925
        ]
      }
    },
    {
      "type": "Feature",
      "properties": {
        "norad_id": 34651,
        "name": "IRIDIUM 33 DEB",
        "group": "iridium-33-debris",
        "lat": 37.77170147304837,
        "lon": -44.86410654297602,
        "alt_km": 727.165864320852,
        "timestamp": "2025-12-18T17:50:15.340280+00:00",
        "meta_object_name": "IRIDIUM 33 DEB",
        "meta_object_id": "1997-051KC",
        "meta_epoch": "2025-12-18T03:41:38.471136",
        "meta_mean_motion": 14.25903582,
        "meta_eccentricity": 0.01422298,
        "meta_inclination": 86.2828,
        "meta_ra_of_asc_node": 138.2742,
        "meta_arg_of_pericenter": 186.7985,
        "meta_mean_anomaly": 173.1282,
        "meta_ephemeris_type": 0,
        "meta_classification_type": "U",
        "meta_norad_cat_id": 34651,
        "meta_element_set_no": 999,
        "meta_rev_at_epoch": 85973,
        "meta_bstar": 0.0025867185,
        "meta_mean_motion_dot": 6.871e-05,
        "meta_mean_motion_ddot": 0,
        "tle_line1": "1 34651U 97051KC  25352.15391749  .00006871  00000+0  25867-2 0  9998",
        "tle_line2": "2 34651  86.2828 138.2742 0142229 186.7985 173.1282 14.25903582859731"
      },
      "geometry": {
        "type": "Point",
        "coordinates": [
          -44.86410654297602,
          37.77170147304837
        ]
      }
    },
    {
      "type": "Feature",
      "properties": {
        "norad_id": 34652,
        "name": "IRIDIUM 33 DEB",
        "group": "iridium-33-debris",
        "lat": -75.33714603810675,
        "lon": 171.52320910432456,
        "alt_km": 676.8605129475463,
        "timestamp": "2025-12-18T17:50:15.340290+00:00",
        "meta_object_name": "IRIDIUM 33 DEB",
        "meta_object_id": "1997-051KD",
        "meta_epoch": "2025-12-18T05:13:09.591168",
        "meta_mean_motion": 14.62108733,
        "meta_eccentricity": 0.0025579,
        "meta_inclination": 86.3312,
        "meta_ra_of_asc_node": 337.5623,
        "meta_arg_of_pericenter": 278.2148,
        "meta_mean_anomaly": 92.0483,
        "meta_ephemeris_type": 0,
        "meta_classification_type": "U",
        "meta_norad_cat_id": 34652,
        "meta_element_set_no": 999,
        "meta_rev_at_epoch": 88564,
        "meta_bstar": 0.00078476432,
        "meta_mean_motion_dot": 3.982e-05,
        "meta_mean_motion_ddot": 0,
        "tle_line1": "1 34652U 97051KD  25352.21747212  .00003982  00000+0  78476-3 0  9991",
        "tle_line2": "2 34652  86.3312 337.5623 0025579 278.2148  92.0483 14.62108733885646"
      },
      "geometry": {
        "type": "Point",
        "coordinates": [
          171.52320910432456,
          -75.33714603810675
        ]
      }
    },
    {
      "type": "Feature",
      "properties": {
        "norad_id": 34690,
        "name": "IRIDIUM 33 DEB",
        "group": "iridium-33-debris",
        "lat": -32.053703053881385,
        "lon": 32.109341253507694,
        "alt_km": 709.7763443568501,
        "timestamp": "2025-12-18T17:50:15.340300+00:00",
        "meta_object_name": "IRIDIUM 33 DEB",
        "meta_object_id": "1997-051KM",
        "meta_epoch": "2025-12-18T03:22:47.271360",
        "meta_mean_motion": 14.55115223,
        "meta_eccentricity": 0.0010189,
        "meta_inclination": 86.3779,
        "meta_ra_of_asc_node": 34.6443,
        "meta_arg_of_pericenter": 11.8253,
        "meta_mean_anomaly": 42.6017,
        "meta_ephemeris_type": 0,
        "meta_classification_type": "U",
        "meta_norad_cat_id": 34690,
        "meta_element_set_no": 999,
        "meta_rev_at_epoch": 88173,
        "meta_bstar": 0.00033300884,
        "meta_mean_motion_dot": 1.459e-05,
        "meta_mean_motion_ddot": 0,
        "tle_line1": "1 34690U 97051KM  25352.14082490  .00001459  00000+0  33301-3 0  9990",
        "tle_line2": "2 34690  86.3779  34.6443 0010189  11.8253  42.6017 14.55115223881733"
      },
      "geometry": {
        "type": "Point",
        "coordinates": [
          32.109341253507694,
          -32.053703053881385
        ]
      }
    },
    {
      "type": "Feature",
      "properties": {
        "norad_id": 34693,
        "name": "IRIDIUM 33 DEB",
        "group": "iridium-33-debris",
        "lat": 15.760422660549702,
        "lon": 119.79388228349758,
        "alt_km": 483.6224223972031,
        "timestamp": "2025-12-18T17:50:15.340310+00:00",
        "meta_object_name": "IRIDIUM 33 DEB",
        "meta_object_id": "1997-051KQ",
        "meta_epoch": "2025-12-17T03:29:01.779936",
        "meta_mean_motion": 15.28993867,
        "meta_eccentricity": 0.0012502,
        "meta_inclination": 86.3047,
        "meta_ra_of_asc_node": 301.6344,
        "meta_arg_of_pericenter": 45.3487,
        "meta_mean_anomaly": 327.2881,
        "meta_ephemeris_type": 0,
        "meta_classification_type": "U",
        "meta_norad_cat_id": 34693,
        "meta_element_set_no": 999,
        "meta_rev_at_epoch": 88982,
        "meta_bstar": 0.0037800508,
        "meta_mean_motion_dot": 0.00107985,
        "meta_mean_motion_ddot": 0,
        "tle_line1": "1 34693U 97051KQ  25351.14515949  .00107985  00000+0  37801-2 0  9991",
        "tle_line2": "2 34693  86.3047 301.6344 0012502  45.3487 327.2881 15.28993867889821"
      },
      "geometry": {
        "type": "Point",
        "coordinates": [
          119.79388228349758,
          15.760422660549702
        ]
      }
    },
    {
      "type": "Feature",
      "properties": {
        "norad_id": 34696,
        "name": "IRIDIUM 33 DEB",
        "group": "iridium-33-debris",
        "lat": -34.27507112933074,
        "lon": 22.122398472408946,
        "alt_km": 734.4576386850313,
        "timestamp": "2025-12-18T17:50:15.340320+00:00",
        "meta_object_name": "IRIDIUM 33 DEB",
        "meta_object_id": "1997-051KT",
        "meta_epoch": "2025-12-18T03:32:40.448832",
        "meta_mean_motion": 14.65358935,
        "meta_eccentricity": 0.00741468,
        "meta_inclination": 86.1848,
        "meta_ra_of_asc_node": 25.0061,
        "meta_arg_of_pericenter": 149.1986,
        "meta_mean_anomaly": 276.8772,
        "meta_ephemeris_type": 0,
        "meta_classification_type": "U",
        "meta_norad_cat_id": 34696,
        "meta_element_set_no": 999,
        "meta_rev_at_epoch": 86752,
        "meta_bstar": 0.0032641319,
        "meta_mean_motion_dot": 0.00018409,
        "meta_mean_motion_ddot": 0,
        "tle_line1": "1 34696U 97051KT  25352.14769038  .00018409  00000+0  32641-2 0  9994",
        "tle_line2": "2 34696  86.1848  25.0061 0074146 149.1986 276.8772 14.65358935867525"
      },
      "geometry": {
        "type": "Point",
        "coordinates": [
          22.122398472408946,
          -34.27507112933074
        ]
      }
    }
  ]
}